CANX-5                  
1 40056U 14034D   26141.46767975  .00000564  00000+0  79720-4 0  9995
2 40056  98.3158  15.8381 0014131  96.4887 263.7934 14.81225039631389
UKUBE-1                 
1 40074U 14037F   26141.45538329  .00005489  00000+0  31473-3 0  9999
2 40074  98.4247 141.9303 0000625 139.0150 221.1125 15.13063709644513
BRITE-PL2 (HEWELIUSZ)   
1 40119U 14049B   26141.52560828  .00001583  00000+0  15195-3 0  9993
2 40119  97.9071 253.3266 0013790 192.2030 167.8857 14.94478729637467
AEROCUBE 5C             
1 40965U 15058B   26141.54947344  .00002097  00000+0  19396-3 0  9995
2 40965  64.7681 345.4495 0129988  73.7557 287.7810 14.91285996361684
AEROCUBE 7              
1 40966U 15058C   26140.81895860  .00002892  00000+0  23987-3 0  9994
2 40966  64.7630 330.5249 0119730  72.6870 288.7301 14.95493189361866
FOX-1A (AO-85)          
1 40967U 15058D   26141.05170779  .00002136  00000+0  20016-3 0  9998
2 40967  64.7762   3.3023 0129286  67.2463 294.2251 14.90792762109526
SINOD-D 1               
1 40968U 15058E   26141.53567660  .00003006  00000+0  24855-3 0  9993
2 40968  64.7762 342.3613 0117818  63.7848 297.5322 14.95676717112675
SNAP-3 ALICE            
1 40970U 15058G   26141.51887636  .00055808  00000+0  82382-3 0  9998
2 40970  64.7512 195.6903 0033419  25.5487 334.7299 15.54370820112737
LMRST-SAT               
1 40971U 15058H   26141.33565349  .00002231  00000+0  20945-3 0  9992
2 40971  64.7768 358.7075 0131046  69.1488 292.3600 14.90420212109554
SNAP-3 EDDIE            
1 40972U 15058J   26141.52936796  .00053049  00000+0  75061-3 0  9994
2 40972  64.7429 186.5707 0033752  29.3335 330.9693 15.55521247114876
PROPCUBE 3              
1 40973U 15058K   26141.50382053  .00002579  00000+0  22205-3 0  9998
2 40973  64.7691 335.8930 0123158  70.5605 290.8768 14.94057114110819
BISONSAT                
1 40974U 15058L   26141.05066708  .00007498  00000+0  37356-3 0  9993
2 40974  64.7600 261.3343 0078499  58.7051 302.1729 15.15589412111507
